NORAD_CAT_ID,OBJECT_NAME,OBJECT_TYPE,EPOCH,MEAN_MOTION,ECCENTRICITY,INCLINATION,RA_OF_ASC_NODE,ARG_OF_PERICENTER,MEAN_ANOMALY,BSTAR,MEAN_MOTION_DOT,MEAN_MOTION_DDOT,TLE_LINE0,TLE_LINE1,TLE_LINE2,SEMIMAJOR_AXIS,PERIOD,APOGEE,PERIGEE,DECAYED
52471.0,STARLINK-3862,PAYLOAD,2022-09-06 14:00:01,15.08830752,0.0001474,53.2155,45.7395,69.2312,32.9278,-0.0014761,-0.00023697,0.0,0 STARLINK-3862,1 52471U 22049W   22249.58334491 -.00023697  00000-0 -14761-2 0  9992,2 52471  53.2155  45.7395 0001474  69.2312  32.9278 15.08830752  1308,6917.909000000002,95.438,540.793,538.754,0.0
52471.0,STARLINK-3862,PAYLOAD,2022-09-06 22:00:00,15.08803667,0.000152,53.2154,44.2441,60.3974,53.3386,0.0029116999999999,0.0004631,0.0,0 STARLINK-3862,1 52471U 22049W   22249.91667824  .00046310  00000-0  29117-2 0  9994,2 52471  53.2154  44.2441 0001520  60.3974  53.3386 15.08803667  1303,6917.991,95.44,540.908,538.805,0.0
52471.0,STARLINK-3862,PAYLOAD,2022-09-07 14:00:01,15.08853636,0.0001529,53.2158,41.25,67.0588,69.8323,-0.001422,-0.00022856,0.0,0 STARLINK-3862,1 52471U 22049W   22250.58334491 -.00022856  00000-0 -14220-2 0  9990,2 52471  53.2158  41.2500 0001529  67.0588  69.8323 15.08853636 19307,6917.839,95.437,540.761,538.646,0.0
52471.0,STARLINK-3862,PAYLOAD,2022-09-07 22:00:00,15.08844281,0.0001624,53.2158,39.7544,59.8617,88.6319,-3.9178e-05,-9.12e-06,0.0,0 STARLINK-3862,1 52471U 22049W   22250.91667824 -.00000912  00000-0 -39178-4 0  9996,2 52471  53.2158  39.7544 0001624  59.8617  88.6319 15.08844281  1306,6917.8669999999975,95.437,540.856,538.609,0.0
52471.0,STARLINK-3862,PAYLOAD,2022-09-08 06:00:00,15.08810956,0.0001553,53.2162,38.2561,68.4033,91.7074,0.0029354,0.00046701,0.0,0 STARLINK-3862,1 52471U 22049W   22251.25001157  .00046701  00000-0  29354-2 0  9992,2 52471  53.2162  38.2561 0001553  68.4033  91.7074 15.08810956 19408,6917.969,95.439,540.909,538.76,0.0
52471.0,STARLINK-3862,PAYLOAD,2022-09-08 14:00:01,15.08851097,0.0001656,53.2165,36.7605,66.8662,104.8182,-0.0012404999999999,-0.00019982,0.0,0 STARLINK-3862,1 52471U 22049W   22251.58334491 -.00019982  00000-0 -12405-2 0  9990,2 52471  53.2165  36.7605 0001656  66.8662 104.8182 15.08851097  1304,6917.846,95.437,540.857,538.566,0.0
52471.0,STARLINK-3862,PAYLOAD,2022-09-08 22:00:00,15.08851027,0.0001671,53.2164,35.2648,60.004,123.2826,-0.00017992,-3.151e-05,0.0,0 STARLINK-3862,1 52471U 22049W   22251.91667824 -.00003151  00000-0 -17992-3 0  9994,2 52471  53.2164  35.2648 0001671  60.0040 123.2826 15.08851027  1300,6917.847,95.437,540.868,538.556,0.0
52471.0,STARLINK-3862,PAYLOAD,2022-09-09 00:00:02,15.08877572,0.0001608,53.2165,34.8901,61.2708,214.9747,-0.0040135,-0.00063664,0.0,0 STARLINK-3862,1 52471U 22049W   22252.00002315 -.00063664  00000-0 -40135-2 0  9992,2 52471  53.2165  34.8901 0001608  61.2708 214.9747 15.08877572 19528,6917.766,95.435,540.743,538.518,0.0
52471.0,STARLINK-3862,PAYLOAD,2022-09-09 14:00:01,15.08855877,0.000153,53.217,32.2713,63.3858,143.1009,-0.0014025,-0.00022549,0.0,0 STARLINK-3862,1 52471U 22049W   22252.58334491 -.00022549  00000-0 -14025-2 0  9994,2 52471  53.2170  32.2713 0001530  63.3858 143.1009 15.08855877  1305,6917.831999999999,95.437,540.755,538.638,0.0
52471.0,STARLINK-3862,PAYLOAD,2022-09-09 22:00:00,15.08841548,0.0001504,53.2168,30.7753,56.0529,162.0391,-0.0010684,-0.00017252,0.0,0 STARLINK-3862,1 52471U 22049W   22252.91667824 -.00017252  00000-0 -10684-2 0  9992,2 52471  53.2168  30.7753 0001504  56.0529 162.0391 15.08841548  1308,6917.876,95.437,540.781,538.7,0.0
52471.0,STARLINK-3862,PAYLOAD,2022-09-10 14:00:01,15.08859886,0.000144,53.2173,27.7823,61.335,179.9354,-0.0026421999999999,-0.00042116,0.0,0 STARLINK-3862,1 52471U 22049W   22253.58334491 -.00042116  00000-0 -26422-2 0  9991,2 52471  53.2173  27.7823 0001440  61.3350 179.9354 15.08859886  1308,6917.82,95.436,540.681,538.688,0.0
52471.0,STARLINK-3862,PAYLOAD,2022-09-10 22:00:00,15.08832724,0.0001524,53.2169,26.2862,57.3347,195.5384,2.1396e-05,5.2e-07,0.0,0 STARLINK-3862,1 52471U 22049W   22253.91667824  .00000052  00000-0  21396-4 0  9995,2 52471  53.2169  26.2862 0001524  57.3347 195.5384 15.08832724  1303,6917.903,95.438,540.822,538.7130000000002,0.0
52471.0,STARLINK-3862,PAYLOAD,2022-09-11 06:00:00,15.0881327,0.0001408,53.2171,24.7883,66.6392,197.8298,0.0035442,0.00056529,0.0,0 STARLINK-3862,1 52471U 22049W   22254.25001157  .00056529  00000-0  35442-2 0  9999,2 52471  53.2171  24.7883 0001408  66.6392 197.8298 15.08813270 19860,6917.962,95.439,540.8009999999998,538.8530000000002,0.0
52471.0,STARLINK-3862,PAYLOAD,2022-09-11 14:00:01,15.08863969,0.0001479,53.2171,23.2935,61.7365,214.3182,-0.0019614,-0.00031388,0.0,0 STARLINK-3862,1 52471U 22049W   22254.58334491 -.00031388  00000-0 -19614-2 0  9996,2 52471  53.2171  23.2935 0001479  61.7365 214.3182 15.08863969  1303,6917.807,95.436,540.695,538.649,0.0
52471.0,STARLINK-3862,PAYLOAD,2022-09-11 22:00:00,15.08857898,0.0001476,53.2167,21.7973,56.3218,231.3414,-0.0036554,-0.00058023,0.0,0 STARLINK-3862,1 52471U 22049W   22254.91667824 -.00058023  00000-0 -36554-2 0  9999,2 52471  53.2167  21.7973 0001476  56.3218 231.3414 15.08857898  1308,6917.826,95.436,540.712,538.67,0.0
52471.0,STARLINK-3862,PAYLOAD,2022-09-12 12:00:00,15.08840253,0.0001481,53.217,19.1784,63.8056,154.1262,-0.00075798,-0.00012331,0.0,0 STARLINK-3862,1 52471U 22049W   22255.50001157 -.00012331  00000-0 -75798-3 0  9992,2 52471  53.2170  19.1784 0001481  63.8056 154.1262 15.08840253 20044,6917.88,95.438,540.769,538.72,0.0
52471.0,STARLINK-3862,PAYLOAD,2022-09-12 14:00:01,15.08836055,0.0001530999999999,53.2168,18.8048,60.6728,250.1578,-0.00031049,-5.226e-05,0.0,0 STARLINK-3862,1 52471U 22049W   22255.58334491 -.00005226  00000-0 -31049-3 0  9996,2 52471  53.2168  18.8048 0001531  60.6728 250.1578 15.08836055  1307,6917.892,95.438,540.817,538.698,0.0
52471.0,STARLINK-3862,PAYLOAD,2022-09-12 22:00:00,15.08854475,0.0001515,53.2165,17.3084,56.1023,266.3119,-0.00030607,-5.158e-05,0.0,0 STARLINK-3862,1 52471U 22049W   22255.91667824 -.00005158  00000-0 -30607-3 0  9995,2 52471  53.2165  17.3084 0001515  56.1023 266.3119 15.08854475  1304,6917.8359999999975,95.437,540.749,538.653,0.0
52471.0,STARLINK-3862,PAYLOAD,2022-09-13 08:00:01,15.08844119,0.0001414,53.2168,15.4367,64.3202,2.6134,0.00096729,0.00015142,0.0,0 STARLINK-3862,1 52471U 22049W   22256.33334491  .00015142  00000-0  96729-3 0  9992,2 52471  53.2168  15.4367 0001414  64.3202   2.6134 15.08844119 20176,6917.868,95.437,540.711,538.755,0.0
52471.0,STARLINK-3862,PAYLOAD,2022-09-13 14:00:01,15.08864887,0.0001534,53.2166,14.3159,56.2117,289.4234,-0.0025194,-0.00040188,0.0,0 STARLINK-3862,1 52471U 22049W   22256.58334491 -.00040188  00000-0 -25194-2 0  9996,2 52471  53.2166  14.3159 0001534  56.2117 289.4234 15.08864887  1303,6917.804,95.436,540.731,538.6080000000002,0.0
52471.0,STARLINK-3862,PAYLOAD,2022-09-13 22:00:00,15.08844254,0.0001639,53.2165,12.8194,55.73,301.4984,-0.0038991,-0.00061817,0.0,0 STARLINK-3862,1 52471U 22049W   22256.91667824 -.00061817  00000-0 -38991-2 0  9993,2 52471  53.2165  12.8194 0001639  55.7300 301.4984 15.08844254  1301,6917.8669999999975,95.437,540.866,538.599,0.0
52471.0,STARLINK-3862,PAYLOAD,2022-09-14 14:00:01,15.08837794,0.0001689,53.2173,9.822,65.4028,314.9421,-0.00011531,-2.123e-05,0.0,0 STARLINK-3862,1 52471U 22049W   22257.58334491 -.00002123  00000-0 -11531-3 0  9995,2 52471  53.2173   9.8220 0001689  65.4028 314.9421 15.08837794  1302,6917.887,95.438,540.9209999999998,538.5840000000002,0.0
52471.0,STARLINK-3862,PAYLOAD,2022-09-14 22:00:00,15.08838313,0.0001641999999999,53.2172,8.3252,64.7128,327.2246,-0.00020302,-3.518e-05,0.0,0 STARLINK-3862,1 52471U 22049W   22257.91667824 -.00003518  00000-0 -20302-3 0  9996,2 52471  53.2172   8.3252 0001642  64.7128 327.2246 15.08838313  1302,6917.886,95.438,540.886,538.615,0.0
52471.0,STARLINK-3862,PAYLOAD,2022-09-15 14:00:01,15.08840856,0.0001733,53.2169,5.337999999999999,55.6858,359.4279,0.00018309,2.627e-05,0.0,0 STARLINK-3862,1 52471U 22049W   22258.58334491  .00002627  00000-0  18309-3 0  9993,2 52471  53.2169   5.3380 0001733  55.6858 359.4279 15.08840856  1305,6917.878000000002,95.438,540.942,538.544,0.0
52471.0,STARLINK-3862,PAYLOAD,2022-09-15 16:00:00,15.08828908,0.0001744,53.2172,4.9642,53.8225,94.1935,0.0021671,0.0003436,0.0,0 STARLINK-3862,1 52471U 22049W   22258.66667824  .00034360  00000-0  21671-2 0  9995,2 52471  53.2172   4.9642 0001744  53.8225  94.1935 15.08828908 20526,6917.9140000000025,95.438,540.986,538.573,0.0
52471.0,STARLINK-3862,PAYLOAD,2022-09-16 04:03:54,15.08844213,0.0001594,53.2173,2.7058,61.0906,299.0246,0.00048144,7.383e-05,0.0,0 STARLINK-3862,1 52471U 22049W   22259.16938307  .00007383  00000-0  48144-3 0  9998,2 52471  53.2173   2.7058 0001594  61.0906 299.0246 15.08844213 20601,6917.868,95.437,540.835,538.63,0.0
52471.0,STARLINK-3862,PAYLOAD,2022-09-16 13:36:13,15.08844269,0.0001621999999999,53.2172,0.9216,55.7481,304.3665,0.00036809,5.576e-05,0.0,0 STARLINK-3862,1 52471U 22049W   22259.56682450  .00005576  00000-0  36809-3 0  9994,2 52471  53.2172   0.9216 0001622  55.7481 304.3665 15.08844269 20501,6917.8669999999975,95.437,540.854,538.61,0.0
52471.0,STARLINK-3862,PAYLOAD,2022-09-17 03:54:42,15.08832651,0.0001582,53.2173,358.2457,56.6766,303.4378,3.3396e-06,-2.35e-06,0.0,0 STARLINK-3862,1 52471U 22049W   22260.16298875 -.00000235  00000-0  33396-5 0  9994,2 52471  53.2173 358.2457 0001582  56.6766 303.4378 15.08832651 20759,6917.903,95.438,540.862,538.673,0.0
52471.0,STARLINK-3862,PAYLOAD,2022-09-17 11:51:37,15.0883803,0.0001541999999999,53.2175,356.7586,56.1609,303.953,0.00016675,2.367e-05,0.0,0 STARLINK-3862,1 52471U 22049W   22260.49418877  .00002367  00000-0  16675-3 0  9992,2 52471  53.2175 356.7586 0001542  56.1609 303.9530 15.08838030 20644,6917.886,95.438,540.818,538.685,0.0
